{
    "links": {
        "self": "http://www.neowsapp.com/rest/v1/neo/3698477?api_key=iIulBulltgU6a56xZRHN4H3l9WmuAYTsLGpBGhQ2"
    },
    "id": "3698477",
    "neo_reference_id": "3698477",
    "name": "(2014 HJ196)",
    "designation": "2014 HJ196",
    "nasa_jpl_url": "http://ssd.jpl.nasa.gov/sbdb.cgi?sstr=3698477",
    "absolute_magnitude_h": 29.2,
    "estimated_diameter": {
        "kilometers": {
            "estimated_diameter_min": 0.0038419789,
            "estimated_diameter_max": 0.008590926
        },
        "meters": {
            "estimated_diameter_min": 3.8419789106,
            "estimated_diameter_max": 8.5909260123
        },
        "miles": {
            "estimated_diameter_min": 0.0023872943,
            "estimated_diameter_max": 0.0053381523
        },
        "feet": {
            "estimated_diameter_min": 12.6049180892,
            "estimated_diameter_max": 28.1854536983
        }
    },
    "is_potentially_hazardous_asteroid": false,
    "close_approach_data": [
        {
            "close_approach_date": "2014-04-29",
            "close_approach_date_full": "2014-Apr-29 19:32",
            "epoch_date_close_approach": 1398799920000,
            "relative_velocity": {
                "kilometers_per_second": "13.9701383075",
                "kilometers_per_hour": "50292.4979069478",
                "miles_per_hour": "31249.8023800143"
            },
            "miss_distance": {
                "astronomical": "0.0031016698",
                "lunar": "1.2065495522",
                "kilometers": "464003.195523326",
                "miles": "288318.2162048588"
            },
            "orbiting_body": "Earth"
        },
        {
            "close_approach_date": "2014-04-30",
            "close_approach_date_full": "2014-Apr-30 03:17",
            "epoch_date_close_approach": 1398827820000,
            "relative_velocity": {
                "kilometers_per_second": "14.2355305133",
                "kilometers_per_hour": "51247.9098479074",
                "miles_per_hour": "31843.4582052178"
            },
            "miss_distance": {
                "astronomical": "0.0026814085",
                "lunar": "1.0430679065",
                "kilometers": "401133.000199895",
                "miles": "249252.488332751"
            },
            "orbiting_body": "Moon"
        }
    ],
    "orbital_data": {
        "orbit_id": "3",
        "orbit_determination_date": "2017-04-06 08:41:05",
        "first_observation_date": "2014-04-23",
        "last_observation_date": "2014-04-25",
        "data_arc_in_days": 2,
        "observations_used": 18,
        "orbit_uncertainty": "9",
        "minimum_orbit_intersection": ".00124388",
        "jupiter_tisserand_invariant": "4.661",
        "epoch_osculation": "2456771.5",
        "eccentricity": ".4725656479091623",
        "semi_major_axis": "1.386554835126552",
        "inclination": "3.005398969591379",
        "ascending_node_longitude": "217.6571932344468",
        "orbital_period": "596.353814223457",
        "perihelion_distance": ".7313166511033914",
        "perihelion_argument": "82.9538302005169",
        "aphelion_distance": "2.041793019149713",
        "perihelion_time": "2456831.216918682272",
        "mean_anomaly": "323.9507785263154",
        "mean_motion": ".6036684790366849",
        "equinox": "J2000",
        "orbit_class": {
            "orbit_class_type": "APO",
            "orbit_class_description": "Near-Earth asteroid orbits which cross the Earth’s orbit similar to that of 1862 Apollo",
            "orbit_class_range": "a (semi-major axis) > 1.0 AU; q (perihelion) < 1.017 AU"
        }
    },
    "is_sentry_object": false
}